{
  "type": "FeatureCollection",
  "features": [
    {
      "type": "Feature",
      "properties": {
        "name": "Lake Superior",
        "area_km2": 82100
      },
      "geometry": {
        "type": "Polygon",
        "coordinates": [[
          [-92.09, 46.78],
          [-91.60, 46.98],
          [-90.82, 47.20],
          [-89.50, 48.01],
          [-88.38, 48.24],
          [-87.48, 48.12],
          [-86.82, 47.81],
          [-85.98, 47.41],
          [-85.24, 47.10],
          [-84.73, 46.81],
          [-84.50, 46.54],
          [-84.37, 46.36],
          [-84.55, 46.24],
          [-84.80, 46.42],
          [-85.10, 46.49],
          [-85.53, 46.73],
          [-86.10, 46.95],
          [-86.52, 46.93],
          [-86.95, 46.78],
          [-87.35, 46.53],
          [-87.78, 46.42],
          [-88.62, 46.68],
          [-89.50, 46.68],
          [-90.30, 46.56],
          [-90.97, 46.67],
          [-91.35, 46.71],
          [-91.70, 46.75],
          [-92.09, 46.78]
        ]]
      }
    },
    {
      "type": "Feature",
      "properties": {
        "name": "Lake Michigan",
        "area_km2": 58000
      },
      "geometry": {
        "type": "Polygon",
        "coordinates": [[
          [-87.03, 45.85],
          [-86.49, 45.79],
          [-85.89, 45.78],
          [-85.41, 45.94],
          [-85.05, 45.97],
          [-84.79, 45.75],
          [-84.73, 45.49],
          [-84.95, 45.27],
          [-85.39, 45.04],
          [-85.58, 44.85],
          [-85.89, 44.77],
          [-86.18, 44.58],
          [-86.26, 44.40],
          [-86.39, 44.17],
          [-86.47, 43.92],
          [-86.54, 43.69],
          [-86.58, 43.42],
          [-86.59, 43.15],
          [-86.55, 42.82],
          [-86.51, 42.62],
          [-86.51, 42.38],
          [-86.54, 42.08],
          [-86.78, 41.77],
          [-87.04, 41.67],
          [-87.30, 41.61],
          [-87.53, 41.79],
          [-87.68, 42.05],
          [-87.76, 42.32],
          [-87.79, 42.56],
          [-87.75, 42.83],
          [-87.73, 43.15],
          [-87.74, 43.46],
          [-87.79, 43.84],
          [-87.80, 44.18],
          [-87.77, 44.51],
          [-87.67, 44.87],
          [-87.55, 45.18],
          [-87.40, 45.42],
          [-87.22, 45.63],
          [-87.03, 45.85]
        ]]
      }
    },
    {
      "type": "Feature",
      "properties": {
        "name": "Lake Huron",
        "area_km2": 59600
      },
      "geometry": {
        "type": "Polygon",
        "coordinates": [[
          [-84.73, 46.81],
          [-84.50, 46.54],
          [-84.37, 46.36],
          [-83.85, 46.12],
          [-83.49, 46.09],
          [-83.42, 45.97],
          [-83.56, 45.82],
          [-83.82, 45.74],
          [-84.09, 45.65],
          [-84.20, 45.48],
          [-84.09, 45.28],
          [-83.86, 45.14],
          [-83.62, 45.06],
          [-83.46, 44.98],
          [-83.34, 44.87],
          [-83.22, 44.75],
          [-83.05, 44.59],
          [-82.92, 44.45],
          [-82.73, 44.22],
          [-82.60, 44.04],
          [-82.53, 43.84],
          [-82.42, 43.62],
          [-82.30, 43.45],
          [-82.18, 43.27],
          [-82.01, 43.16],
          [-81.79, 43.08],
          [-81.49, 43.04],
          [-81.26, 42.95],
          [-81.13, 42.86],
          [-81.01, 42.75],
          [-81.29, 42.78],
          [-81.67, 42.91],
          [-82.05, 43.08],
          [-82.31, 43.26],
          [-82.52, 43.50],
          [-82.72, 43.75],
          [-82.86, 44.02],
          [-83.03, 44.22],
          [-83.22, 44.41],
          [-83.43, 44.62],
          [-83.65, 44.78],
          [-83.89, 44.96],
          [-84.11, 45.15],
          [-84.29, 45.38],
          [-84.42, 45.60],
          [-84.55, 45.82],
          [-84.70, 46.08],
          [-84.79, 46.29],
          [-84.80, 46.50],
          [-84.73, 46.81]
        ]]
      }
    },
    {
      "type": "Feature",
      "properties": {
        "name": "Lake Erie",
        "area_km2": 25700
      },
      "geometry": {
        "type": "Polygon",
        "coordinates": [[
          [-83.15, 41.99],
          [-82.89, 41.72],
          [-82.75, 41.61],
          [-82.50, 41.55],
          [-82.20, 41.50],
          [-81.85, 41.61],
          [-81.51, 41.73],
          [-81.17, 41.84],
          [-80.78, 41.96],
          [-80.37, 42.08],
          [-80.05, 42.16],
          [-79.76, 42.27],
          [-79.05, 42.78],
          [-78.91, 42.85],
          [-78.89, 42.95],
          [-78.95, 43.03],
          [-79.04, 43.11],
          [-79.25, 43.19],
          [-79.56, 43.25],
          [-79.88, 43.24],
          [-80.20, 43.17],
          [-80.47, 43.07],
          [-80.71, 42.96],
          [-81.01, 42.85],
          [-81.25, 42.78],
          [-81.54, 42.72],
          [-81.84, 42.68],
          [-82.18, 42.65],
          [-82.51, 42.63],
          [-82.83, 42.69],
          [-82.96, 42.80],
          [-83.08, 42.93],
          [-83.13, 43.09],
          [-83.20, 43.23],
          [-83.12, 43.10],
          [-83.10, 42.93],
          [-83.14, 42.78],
          [-83.18, 42.62],
          [-83.20, 42.45],
          [-83.19, 42.28],
          [-83.15, 42.09],
          [-83.15, 41.99]
        ]]
      }
    },
    {
      "type": "Feature",
      "properties": {
        "name": "Lake Ontario",
        "area_km2": 19000
      },
      "geometry": {
        "type": "Polygon",
        "coordinates": [[
          [-79.88, 43.24],
          [-79.56, 43.25],
          [-79.25, 43.19],
          [-79.04, 43.11],
          [-78.95, 43.03],
          [-78.91, 42.95],
          [-78.89, 42.85],
          [-78.57, 42.95],
          [-78.23, 43.06],
          [-77.82, 43.20],
          [-77.42, 43.35],
          [-76.96, 43.54],
          [-76.51, 43.73],
          [-76.35, 43.88],
          [-76.30, 44.04],
          [-76.37, 44.17],
          [-76.52, 44.27],
          [-76.73, 44.33],
          [-77.02, 44.36],
          [-77.35, 44.36],
          [-77.70, 44.32],
          [-78.06, 44.24],
          [-78.42, 44.14],
          [-78.75, 44.03],
          [-79.09, 43.90],
          [-79.40, 43.75],
          [-79.67, 43.59],
          [-79.82, 43.43],
          [-79.88, 43.30],
          [-79.88, 43.24]
        ]]
      }
    }
  ]
}
